CZ-2C R/B               
1 54039U 22132E   25361.98374629  .00037496  00000+0  53848-3 0  9995
2 54039  97.2952 358.4840 0020474   4.5506 355.5931 15.55773002179201
GSLV R/B                
1 54149U 22138AN  25361.97121319  .00002987  00000+0  26109-3 0  9995
2 54149  87.3823 190.3723 0023794  55.7833 304.5648 14.96209672173206
XRISM                   
1 57800U 23137A   25361.76940133  .00007356  00000+0  42978-3 0  9999
2 57800  31.0032  28.4967 0007570  36.9423 323.1735 15.10499509126908
ACS3                    
1 59588U 24077B   25361.91576863  .00029346  00000+0  24825-1 0  9992
2 59588  97.2570 314.1314 0073257 300.6710  58.7246 13.86214031 84244
SZ-21 MODULE            
1 66515U 25246C   25361.49223441  .00029574  00000+0  31547-3 0  9997
2 66515  41.4763 286.0025 0004074 340.5581  19.5103 15.63283022  6753
